CCSDS_OMM_VERS = 2.0
CREATION_DATE  = 
ORIGINATOR     = 

OBJECT_NAME    = STARLINK-35116
OBJECT_ID      = 2025-235W
CENTER_NAME    = EARTH
REF_FRAME      = TEME
TIME_SYSTEM    = UTC
MEAN_ELEMENT_THEORY = SGP/SGP4

EPOCH          = 2025-11-11T08:00:03.000384
MEAN_MOTION    = 15.49293689
ECCENTRICITY   = .00013483
INCLINATION    = 53.1600
RA_OF_ASC_NODE = 77.2044
ARG_OF_PERICENTER = 67.2386
MEAN_ANOMALY   = 151.5246

EPHEMERIS_TYPE = 0
CLASSIFICATION_TYPE = U
NORAD_CAT_ID   = 66078
ELEMENT_SET_NO = 999
REV_AT_EPOCH   = 482
BSTAR          = -.2479074E-3
MEAN_MOTION_DOT = -.14203E-3
MEAN_MOTION_DDOT = 0

CCSDS_OMM_VERS = 2.0
CREATION_DATE  = 
ORIGINATOR     = 

OBJECT_NAME    = STARLINK-35402
OBJECT_ID      = 2025-235X
CENTER_NAME    = EARTH
REF_FRAME      = TEME
TIME_SYSTEM    = UTC
MEAN_ELEMENT_THEORY = SGP/SGP4

EPOCH          = 2025-11-11T08:00:03.000384
MEAN_MOTION    = 15.49291228
ECCENTRICITY   = .00014055
INCLINATION    = 53.1601
RA_OF_ASC_NODE = 77.2005
ARG_OF_PERICENTER = 69.6887
MEAN_ANOMALY   = 150.9913

EPHEMERIS_TYPE = 0
CLASSIFICATION_TYPE = U
NORAD_CAT_ID   = 66079
ELEMENT_SET_NO = 999
REV_AT_EPOCH   = 482
BSTAR          = -.13148507E-3
MEAN_MOTION_DOT = -.7749E-4
MEAN_MOTION_DDOT = 0

CCSDS_OMM_VERS = 2.0
CREATION_DATE  = 
ORIGINATOR     = 

OBJECT_NAME    = STARLINK-35325
OBJECT_ID      = 2025-235Y
CENTER_NAME    = EARTH
REF_FRAME      = TEME
TIME_SYSTEM    = UTC
MEAN_ELEMENT_THEORY = SGP/SGP4

EPOCH          = 2025-11-11T08:00:03.000384
MEAN_MOTION    = 15.49288389
ECCENTRICITY   = .00013509
INCLINATION    = 53.1600
RA_OF_ASC_NODE = 77.2080
ARG_OF_PERICENTER = 67.6584
MEAN_ANOMALY   = 149.1889

EPHEMERIS_TYPE = 0
CLASSIFICATION_TYPE = U
NORAD_CAT_ID   = 66080
ELEMENT_SET_NO = 999
REV_AT_EPOCH   = 482
BSTAR          = -.39026398E-4
MEAN_MOTION_DOT = -.2616E-4
MEAN_MOTION_DDOT = 0

CCSDS_OMM_VERS = 2.0
CREATION_DATE  = 
ORIGINATOR     = 

OBJECT_NAME    = STARLINK-35403
OBJECT_ID      = 2025-235Z
CENTER_NAME    = EARTH
REF_FRAME      = TEME
TIME_SYSTEM    = UTC
MEAN_ELEMENT_THEORY = SGP/SGP4

EPOCH          = 2025-11-11T08:00:03.000384
MEAN_MOTION    = 15.49290544
ECCENTRICITY   = .0001422
INCLINATION    = 53.1600
RA_OF_ASC_NODE = 77.1942
ARG_OF_PERICENTER = 66.4614
MEAN_ANOMALY   = 158.0536

EPHEMERIS_TYPE = 0
CLASSIFICATION_TYPE = U
NORAD_CAT_ID   = 66081
ELEMENT_SET_NO = 999
REV_AT_EPOCH   = 482
BSTAR          = -.15348489E-3
MEAN_MOTION_DOT = -.8969E-4
MEAN_MOTION_DDOT = 0

CCSDS_OMM_VERS = 2.0
CREATION_DATE  = 
ORIGINATOR     = 

OBJECT_NAME    = STARLINK-35011
OBJECT_ID      = 2025-235AA
CENTER_NAME    = EARTH
REF_FRAME      = TEME
TIME_SYSTEM    = UTC
MEAN_ELEMENT_THEORY = SGP/SGP4

EPOCH          = 2025-11-11T08:00:03.000384
MEAN_MOTION    = 15.49283845
ECCENTRICITY   = .0001381
INCLINATION    = 53.1601
RA_OF_ASC_NODE = 77.1962
ARG_OF_PERICENTER = 69.8586
MEAN_ANOMALY   = 152.7424

EPHEMERIS_TYPE = 0
CLASSIFICATION_TYPE = U
NORAD_CAT_ID   = 66082
ELEMENT_SET_NO = 999
REV_AT_EPOCH   = 482
BSTAR          = .65526929E-4
MEAN_MOTION_DOT = .3194E-4
MEAN_MOTION_DDOT = 0

CCSDS_OMM_VERS = 2.0
CREATION_DATE  = 
ORIGINATOR     = 

OBJECT_NAME    = STARLINK-35291
OBJECT_ID      = 2025-235AB
CENTER_NAME    = EARTH
REF_FRAME      = TEME
TIME_SYSTEM    = UTC
MEAN_ELEMENT_THEORY = SGP/SGP4

EPOCH          = 2025-11-11T08:00:03.000384
MEAN_MOTION    = 15.49264961
ECCENTRICITY   = .00013931
INCLINATION    = 53.1601
RA_OF_ASC_NODE = 77.1887
ARG_OF_PERICENTER = 95.5823
MEAN_ANOMALY   = 130.8489

EPHEMERIS_TYPE = 0
CLASSIFICATION_TYPE = U
NORAD_CAT_ID   = 66083
ELEMENT_SET_NO = 999
REV_AT_EPOCH   = 478
BSTAR          = .11873935E-2
MEAN_MOTION_DOT = .66047E-3
MEAN_MOTION_DDOT = 0

CCSDS_OMM_VERS = 2.0
CREATION_DATE  = 
ORIGINATOR     = 

OBJECT_NAME    = STARLINK-35379
OBJECT_ID      = 2025-235AC
CENTER_NAME    = EARTH
REF_FRAME      = TEME
TIME_SYSTEM    = UTC
MEAN_ELEMENT_THEORY = SGP/SGP4

EPOCH          = 2025-11-11T08:00:03.000384
MEAN_MOTION    = 15.49288546
ECCENTRICITY   = .00014091
INCLINATION    = 53.1601
RA_OF_ASC_NODE = 77.1842
ARG_OF_PERICENTER = 67.2193
MEAN_ANOMALY   = 161.1286

EPHEMERIS_TYPE = 0
CLASSIFICATION_TYPE = U
NORAD_CAT_ID   = 66084
ELEMENT_SET_NO = 999
REV_AT_EPOCH   = 482
BSTAR          = -.33391083E-4
MEAN_MOTION_DOT = -.2304E-4
MEAN_MOTION_DDOT = 0

CCSDS_OMM_VERS = 2.0
CREATION_DATE  = 
ORIGINATOR     = 

OBJECT_NAME    = STARLINK-35370
OBJECT_ID      = 2025-235AD
CENTER_NAME    = EARTH
REF_FRAME      = TEME
TIME_SYSTEM    = UTC
MEAN_ELEMENT_THEORY = SGP/SGP4

EPOCH          = 2025-11-11T08:00:03.000384
MEAN_MOTION    = 15.49301394
ECCENTRICITY   = .00014695
INCLINATION    = 53.1600
RA_OF_ASC_NODE = 77.1801
ARG_OF_PERICENTER = 69.1974
MEAN_ANOMALY   = 161.0682

EPHEMERIS_TYPE = 0
CLASSIFICATION_TYPE = U
NORAD_CAT_ID   = 66085
ELEMENT_SET_NO = 999
REV_AT_EPOCH   = 478
BSTAR          = -.55062186E-3
MEAN_MOTION_DOT = -.30943E-3
MEAN_MOTION_DDOT = 0

CCSDS_OMM_VERS = 2.0
CREATION_DATE  = 
ORIGINATOR     = 

OBJECT_NAME    = STARLINK-35596
OBJECT_ID      = 2025-236A
CENTER_NAME    = EARTH
REF_FRAME      = TEME
TIME_SYSTEM    = UTC
MEAN_ELEMENT_THEORY = SGP/SGP4

EPOCH          = 2025-11-11T08:00:03.000384
MEAN_MOTION    = 15.63925064
ECCENTRICITY   = .00015196
INCLINATION    = 53.1593
RA_OF_ASC_NODE = 296.1470
ARG_OF_PERICENTER = 84.9267
MEAN_ANOMALY   = 86.5966

EPHEMERIS_TYPE = 0
CLASSIFICATION_TYPE = U
NORAD_CAT_ID   = 66086
ELEMENT_SET_NO = 999
REV_AT_EPOCH   = 482
BSTAR          = -.23425303E-1
MEAN_MOTION_DOT = -.197853E-1
MEAN_MOTION_DDOT = 0

CCSDS_OMM_VERS = 2.0
CREATION_DATE  = 
ORIGINATOR     = 

OBJECT_NAME    = STARLINK-35563
OBJECT_ID      = 2025-236B
CENTER_NAME    = EARTH
REF_FRAME      = TEME
TIME_SYSTEM    = UTC
MEAN_ELEMENT_THEORY = SGP/SGP4

EPOCH          = 2025-11-11T06:00:02.000160
MEAN_MOTION    = 15.64316787
ECCENTRICITY   = .00013189
INCLINATION    = 53.1594
RA_OF_ASC_NODE = 296.5500
ARG_OF_PERICENTER = 78.3275
MEAN_ANOMALY   = 345.5359

EPHEMERIS_TYPE = 0
CLASSIFICATION_TYPE = U
NORAD_CAT_ID   = 66087
ELEMENT_SET_NO = 999
REV_AT_EPOCH   = 475
BSTAR          = -.2367102E-1
MEAN_MOTION_DOT = -.2024216E-1
MEAN_MOTION_DDOT = 0

CCSDS_OMM_VERS = 2.0
CREATION_DATE  = 
ORIGINATOR     = 

OBJECT_NAME    = STARLINK-35461
OBJECT_ID      = 2025-236C
CENTER_NAME    = EARTH
REF_FRAME      = TEME
TIME_SYSTEM    = UTC
MEAN_ELEMENT_THEORY = SGP/SGP4

EPOCH          = 2025-11-11T06:00:02.000160
MEAN_MOTION    = 15.64317327
ECCENTRICITY   = .00012366
INCLINATION    = 53.1595
RA_OF_ASC_NODE = 296.5431
ARG_OF_PERICENTER = 76.5044
MEAN_ANOMALY   = 351.1915

EPHEMERIS_TYPE = 0
CLASSIFICATION_TYPE = U
NORAD_CAT_ID   = 66088
ELEMENT_SET_NO = 999
REV_AT_EPOCH   = 475
BSTAR          = -.23660961E-1
MEAN_MOTION_DOT = -.2023437E-1
MEAN_MOTION_DDOT = 0

CCSDS_OMM_VERS = 2.0
CREATION_DATE  = 
ORIGINATOR     = 

OBJECT_NAME    = STARLINK-35571
OBJECT_ID      = 2025-236D
CENTER_NAME    = EARTH
REF_FRAME      = TEME
TIME_SYSTEM    = UTC
MEAN_ELEMENT_THEORY = SGP/SGP4

EPOCH          = 2025-11-11T06:00:02.000160
MEAN_MOTION    = 15.64316682
ECCENTRICITY   = .00012075
INCLINATION    = 53.1594
RA_OF_ASC_NODE = 296.5461
ARG_OF_PERICENTER = 77.6655
MEAN_ANOMALY   = 348.1180

EPHEMERIS_TYPE = 0
CLASSIFICATION_TYPE = U
NORAD_CAT_ID   = 66089
ELEMENT_SET_NO = 999
REV_AT_EPOCH   = 481
BSTAR          = -.23698229E-1
MEAN_MOTION_DOT = -.202616E-1
MEAN_MOTION_DDOT = 0

