STARLINK-35116          
1 66078U 25235W   25315.33336806 -.00014203  00000+0 -24791-3 0  9999
2 66078  53.1600  77.2044 0001348  67.2386 151.5246 15.49293689  4820
STARLINK-35402          
1 66079U 25235X   25315.33336806 -.00007749  00000+0 -13149-3 0  9992
2 66079  53.1601  77.2005 0001405  69.6887 150.9913 15.49291228  4826
STARLINK-35325          
1 66080U 25235Y   25315.33336806 -.00002616  00000+0 -39026-4 0  9995
2 66080  53.1600  77.2080 0001350  67.6584 149.1889 15.49288389  4827
STARLINK-35403          
1 66081U 25235Z   25315.33336806 -.00008969  00000+0 -15348-3 0  9993
2 66081  53.1600  77.1942 0001422  66.4614 158.0536 15.49290544  4829
STARLINK-35011          
1 66082U 25235AA  25315.33336806  .00003194  00000+0  65527-4 0  9992
2 66082  53.1601  77.1962 0001381  69.8586 152.7424 15.49283845  4825
STARLINK-35291          
1 66083U 25235AB  25315.33336806  .00066047  00000+0  11874-2 0  9993
2 66083  53.1601  77.1887 0001393  95.5823 130.8489 15.49264961  4786
STARLINK-35379          
1 66084U 25235AC  25315.33336806 -.00002304  00000+0 -33391-4 0  9992
2 66084  53.1601  77.1842 0001409  67.2193 161.1286 15.49288546  4824
STARLINK-35370          
1 66085U 25235AD  25315.33336806 -.00030943  00000+0 -55062-3 0  9991
2 66085  53.1600  77.1801 0001469  69.1974 161.0682 15.49301394  4784
STARLINK-35596          
1 66086U 25236A   25315.33336806 -.01978530  00000+0 -23425-1 0  9993
2 66086  53.1593 296.1470 0001519  84.9267  86.5966 15.63925064  4820
STARLINK-35563          
1 66087U 25236B   25315.25002315 -.02024216  00000+0 -23671-1 0  9997
2 66087  53.1594 296.5500 0001318  78.3275 345.5359 15.64316787  4756
STARLINK-35461          
1 66088U 25236C   25315.25002315 -.02023437  00000+0 -23661-1 0  9991
2 66088  53.1595 296.5431 0001236  76.5044 351.1915 15.64317327  4756
STARLINK-35571          
1 66089U 25236D   25315.25002315 -.02026160  00000+0 -23698-1 0  9998
2 66089  53.1594 296.5461 0001207  77.6655 348.1180 15.64316682  4817
